NORAD_CAT_ID,OBJECT_NAME,OBJECT_TYPE,EPOCH,MEAN_MOTION,ECCENTRICITY,INCLINATION,RA_OF_ASC_NODE,ARG_OF_PERICENTER,MEAN_ANOMALY,BSTAR,MEAN_MOTION_DOT,MEAN_MOTION_DDOT,TLE_LINE0,TLE_LINE1,TLE_LINE2,SEMIMAJOR_AXIS,PERIOD,APOGEE,PERIGEE,DECAYED
56482.0,STARLINK-6220,PAYLOAD,2024-07-22 08:22:04,14.98331351,0.0003623,69.9996,185.4932,266.7424,93.332,5.2513e-05,5.34e-06,0.0,0 STARLINK-6220,1 56482U 23064AL  24204.34865793  .00000534  00000-0  52513-4 0  9999,2 56482  69.9996 185.4932 0003623 266.7424  93.3320 14.98331351 66563,6950.189,96.107,574.572,569.536,0.0
56482.0,STARLINK-6220,PAYLOAD,2024-07-23 05:11:48,14.98335057,0.0003665,69.9994,183.3054,267.4388,92.6351,9.1849e-05,1.003e-05,0.0,0 STARLINK-6220,1 56482U 23064AL  24205.21653395  .00001003  00000-0  91849-4 0  9996,2 56482  69.9994 183.3054 0003665 267.4388  92.6351 14.98335057 67054,6950.177,96.107,574.589,569.495,0.0
56482.0,STARLINK-6220,PAYLOAD,2024-07-23 08:24:04,14.98336971,0.0003617,69.9995,182.9688,267.2816,92.7929,0.00011397,1.267e-05,0.0,0 STARLINK-6220,1 56482U 23064AL  24205.35005186  .00001267  00000-0  11397-3 0  9991,2 56482  69.9995 182.9688 0003617 267.2816  92.7929 14.98336971 66714,6950.171,96.107,574.55,569.522,0.0
56482.0,STARLINK-6220,PAYLOAD,2024-07-23 22:49:17,14.98326052,0.0003458,69.9997,181.4526,267.6345,92.4418,1.1708e-05,4.7e-07,0.0,0 STARLINK-6220,1 56482U 23064AL  24205.95090109  .00000047  00000-0  11708-4 0  9998,2 56482  69.9997 181.4526 0003458 267.6345  92.4418 14.98326052 66804,6950.205,96.107,574.473,569.667,0.0
56482.0,STARLINK-6220,PAYLOAD,2024-07-24 05:13:50,14.98323852,0.0003502,69.9994,180.7795,267.717,92.3588,-2.0365e-05,-3.36e-06,0.0,0 STARLINK-6220,1 56482U 23064AL  24206.21794388 -.00000336  00000-0 -20365-4 0  9990,2 56482  69.9994 180.7795 0003502 267.7170  92.3588 14.98323852 67205,6950.212,96.107,574.511,569.643,0.0
56482.0,STARLINK-6220,PAYLOAD,2024-07-24 08:26:06,14.98325274,0.0003499,69.9995,180.4429,267.7467,92.3292,-5.3419e-06,-1.57e-06,0.0,0 STARLINK-6220,1 56482U 23064AL  24206.35146298 -.00000157  00000-0 -53419-5 0  9994,2 56482  69.9995 180.4429 0003499 267.7467  92.3292 14.98325274 66864,6950.208,96.107,574.504,569.641,0.0
56482.0,STARLINK-6220,PAYLOAD,2024-07-24 22:51:18,14.98336667,0.000354,69.9993,178.9282,267.8044,92.271,3.167e-05,2.85e-06,0.0,0 STARLINK-6220,1 56482U 23064AL  24206.95229467  .00000285  00000-0  31670-4 0  9994,2 56482  69.9993 178.9282 0003540 267.8044  92.2710 14.98336667 66952,6950.172,96.107,574.498,569.577,0.0
56482.0,STARLINK-6220,PAYLOAD,2024-07-25 05:15:50,14.9833814,0.0003527,69.9994,178.2549,267.8242,92.2513,4.9244e-05,4.95e-06,0.0,0 STARLINK-6220,1 56482U 23064AL  24207.21933234  .00000495  00000-0  49244-4 0  9997,2 56482  69.9994 178.2549 0003527 267.8242  92.2513 14.98338140 67351,6950.168,96.106,574.484,569.581,0.0
56482.0,STARLINK-6220,PAYLOAD,2024-07-25 06:51:58,14.98339422,0.0003522,69.9994,178.0866,267.8369,92.2386,6.3228e-05,6.62e-06,0.0,0 STARLINK-6220,1 56482U 23064AL  24207.28609085  .00000662  00000-0  63228-4 0  9992,2 56482  69.9994 178.0866 0003522 267.8369  92.2386 14.98339422 67000,6950.164,96.106,574.477,569.581,0.0
56482.0,STARLINK-6220,PAYLOAD,2024-07-25 21:17:11,14.98323569,0.000346,69.9996,176.5726,271.3198,88.7564,5.3674e-05,5.47e-06,0.0,0 STARLINK-6220,1 56482U 23064AL  24207.88694008  .00000547  00000-0  53674-4 0  9993,2 56482  69.9996 176.5726 0003460 271.3198  88.7564 14.98323569 67453,6950.213,96.107,574.483,569.673,0.0
56482.0,STARLINK-6220,PAYLOAD,2024-07-26 08:30:07,14.98328017,0.0003296,69.9999,175.395,263.5046,96.5738,0.00011356,1.262e-05,0.0,0 STARLINK-6220,1 56482U 23064AL  24208.35425661  .00001262  00000-0  11356-3 0  9998,2 56482  69.9999 175.3950 0003296 263.5046  96.5738 14.98328017 67525,6950.199,96.107,574.355,569.773,0.0
56482.0,STARLINK-6220,PAYLOAD,2024-07-26 14:54:40,14.98330852,0.0003234,70.0,174.7215,267.1001,92.9788,6.2268e-05,6.5e-06,0.0,0 STARLINK-6220,1 56482U 23064AL  24208.62129654  .00000650  00000-0  62268-4 0  9990,2 56482  70.0000 174.7215 0003234 267.1001  92.9788 14.98330852 67201,6950.19,96.107,574.303,569.808,0.0
56482.0,STARLINK-6220,PAYLOAD,2024-07-27 03:43:44,14.98337462,0.0003145,70.0004,173.3749,266.3742,93.7058,4.1066e-05,3.97e-06,0.0,0 STARLINK-6220,1 56482U 23064AL  24209.15537126  .00000397  00000-0  41066-4 0  9997,2 56482  70.0004 173.3749 0003145 266.3742  93.7058 14.98337462 67647,6950.17,96.107,574.221,569.849,0.0
56482.0,STARLINK-6220,PAYLOAD,2024-07-27 05:19:52,14.98337686,0.0003139,70.0003,173.2065,266.4729,93.6071,4.3611e-05,4.27e-06,0.0,0 STARLINK-6220,1 56482U 23064AL  24209.22213081  .00000427  00000-0  43611-4 0  9998,2 56482  70.0003 173.2065 0003139 266.4729  93.6071 14.98337686 67298,6950.169,96.107,574.216,569.852,0.0
56482.0,STARLINK-6220,PAYLOAD,2024-07-27 06:56:00,14.9833796,0.0003133,70.0003,173.0382,266.4656,93.6145,4.6535e-05,4.62e-06,0.0,0 STARLINK-6220,1 56482U 23064AL  24209.28889027  .00000462  00000-0  46535-4 0  9990,2 56482  70.0003 173.0382 0003133 266.4656  93.6145 14.98337960 67300,6950.168,96.106,574.211,569.856,0.0
56482.0,STARLINK-6220,PAYLOAD,2024-07-28 03:45:45,14.98323902,0.000327,69.9996,170.8491,269.9392,90.1392,-2.3245e-05,-3.7e-06,0.0,0 STARLINK-6220,1 56482U 23064AL  24210.15678125 -.00000370  00000-0 -23245-4 0  9996,2 56482  69.9996 170.8491 0003270 269.9392  90.1392 14.98323902 67791,6950.212,96.107,574.349,569.804,0.0
56482.0,STARLINK-6220,PAYLOAD,2024-07-28 22:59:22,14.98330487,0.0003223,69.9999,168.8297,270.0913,89.9876,-3.8894e-05,-5.57e-06,0.0,0 STARLINK-6220,1 56482U 23064AL  24210.95789905 -.00000557  00000-0 -38894-4 0  9996,2 56482  69.9999 168.8297 0003223 270.0913  89.9876 14.98330487 67558,6950.191,96.107,574.296,569.816,0.0
56482.0,STARLINK-6220,PAYLOAD,2024-07-29 03:47:46,14.98329838,0.0003158,70.0001,168.3248,269.8493,90.2304,2.7748e-05,2.38e-06,0.0,0 STARLINK-6220,1 56482U 23064AL  24211.15817750  .00000238  00000-0  27748-4 0  9999,2 56482  70.0001 168.3248 0003158 269.8493  90.2304 14.98329838 67944,6950.193,96.107,574.253,569.864,0.0
56482.0,STARLINK-6220,PAYLOAD,2024-07-29 07:00:02,14.98330758,0.0003152,70.0002,167.9882,269.9357,90.1441,3.7808e-05,3.58e-06,0.0,0 STARLINK-6220,1 56482U 23064AL  24211.29169681  .00000358  00000-0  37808-4 0  9998,2 56482  70.0002 167.9882 0003152 269.9357  90.1441 14.98330758 67605,6950.191,96.107,574.246,569.865,0.0
56482.0,STARLINK-6220,PAYLOAD,2024-07-29 23:01:23,14.98328541,0.000328,69.9999,166.305,270.8761,89.2022,9.704e-05,1.065e-05,0.0,0 STARLINK-6220,1 56482U 23064AL  24211.95929687  .00001065  00000-0  97040-4 0  9991,2 56482  69.9999 166.3050 0003280 270.8761  89.2022 14.98328541 67701,6950.197,96.107,574.342,569.783,0.0
56482.0,STARLINK-6220,PAYLOAD,2024-07-30 03:49:47,14.98331434,0.0003317,69.9999,165.8006,271.4494,88.6285,0.00012288,1.374e-05,0.0,0 STARLINK-6220,1 56482U 23064AL  24212.15957465  .00001374  00000-0  12288-3 0  9992,2 56482  69.9999 165.8006 0003317 271.4494  88.6285 14.98331434 68099,6950.188,96.107,574.359,569.748,0.0
56482.0,STARLINK-6220,PAYLOAD,2024-07-30 07:02:03,14.98334831,0.000326,70.0,165.4637,271.0033,89.0753,0.00015867,1.801e-05,0.0,0 STARLINK-6220,1 56482U 23064AL  24212.29309144  .00001801  00000-0  15867-3 0  9993,2 56482  70.0000 165.4637 0003260 271.0033  89.0753 14.98334831 67754,6950.178,96.107,574.309,569.777,0.0
56482.0,STARLINK-6220,PAYLOAD,2024-07-30 23:03:23,14.98337155,0.0003226,70.0,163.7806,270.9593,89.1197,8.5025e-05,9.22e-06,0.0,0 STARLINK-6220,1 56482U 23064AL  24212.96069045  .00000922  00000-0  85025-4 0  9997,2 56482  70.0000 163.7806 0003226 270.9593  89.1197 14.98337155 67850,6950.171,96.107,574.278,569.794,0.0
56482.0,STARLINK-6220,PAYLOAD,2024-07-31 03:51:47,14.98340909,0.0003226,69.9999,163.2758,270.8941,89.1849,0.00012121,1.354e-05,0.0,0 STARLINK-6220,1 56482U 23064AL  24213.16096607  .00001354  00000-0  12121-3 0  9990,2 56482  69.9999 163.2758 0003226 270.8941  89.1849 14.98340909 68240,6950.159,96.106,574.266,569.782,0.0
56482.0,STARLINK-6220,PAYLOAD,2024-07-31 13:28:36,14.98337074,0.000314,70.0001,162.2667,269.2814,90.7985,5.5053e-05,5.64e-06,0.0,0 STARLINK-6220,1 56482U 23064AL  24213.56152798  .00000564  00000-0  55053-4 0  9992,2 56482  70.0001 162.2667 0003140 269.2814  90.7985 14.98337074 67945,6950.171,96.107,574.218,569.854,0.0
56482.0,STARLINK-6220,PAYLOAD,2024-07-31 21:29:16,14.98326773,0.0002955,70.0026,161.4262,268.9722,91.1099,1.7216e-05,1.12e-06,0.0,0 STARLINK-6220,1 56482U 23064AL  24213.89533555  .00000112  00000-0  17216-4 0  9990,2 56482  70.0026 161.4262 0002955 268.9722  91.1099 14.98326773 68352,6950.203,96.107,574.122,570.014,0.0
56482.0,STARLINK-6220,PAYLOAD,2024-07-31 23:05:25,14.9831227,0.0002863,70.0013,161.2575,269.3776,90.7055,0.0001875,2.144e-05,0.0,0 STARLINK-6220,1 56482U 23064AL  24213.96210133  .00002144  00000-0  18750-3 0  9992,2 56482  70.0013 161.2575 0002863 269.3776  90.7055 14.98312270 68001,6950.248,96.108,574.103,570.123,0.0
56482.0,STARLINK-6220,PAYLOAD,2024-08-01 13:30:37,14.98332157,0.0002729,70.0008,159.7425,268.322,91.7626,-3.945e-05,-5.64e-06,0.0,0 STARLINK-6220,1 56482U 23064AL  24214.56293371 -.00000564  00000-0 -39450-4 0  9991,2 56482  70.0008 159.7425 0002729 268.3220  91.7626 14.98332157 68095,6950.186,96.107,573.948,570.155,0.0
56482.0,STARLINK-6220,PAYLOAD,2024-08-01 21:31:17,14.98337165,0.0002751,70.0006,158.9009,265.4561,94.6284,-1.6412e-06,-1.13e-06,0.0,0 STARLINK-6220,1 56482U 23064AL  24214.89672822 -.00000113  00000-0 -16412-5 0  9993,2 56482  70.0006 158.9009 0002751 265.4561  94.6284 14.98337165 68505,6950.171,96.107,573.948,570.124,0.0
56482.0,STARLINK-6220,PAYLOAD,2024-08-01 23:07:25,14.98335381,0.0002731,70.0008,158.733,264.2011,95.8837,-8.0982e-06,-1.9e-06,0.0,0 STARLINK-6220,1 56482U 23064AL  24214.96348916 -.00000190  00000-0 -80982-5 0  9993,2 56482  70.0008 158.7330 0002731 264.2011  95.8837 14.98335381 68153,6950.176,96.107,573.939,570.143,0.0
